HULIANWANG DIGUI-108    
1 66918U 25285D   26204.46256791 -.00000110  00000+0  30733-4 0  9998
2 66918  50.0064  15.8957 0000913  67.0991 292.9977 13.29326044 30885
HULIANWANG DIGUI-109    
1 66919U 25285E   26204.83005699 -.00000100  00000+0  52791-4 0  9996
2 66919  50.0091  14.5502 0000869  78.3495 281.7475 13.29316865 30948
HULIANWANG DIGUI-110    
1 66920U 25285F   26204.82179885 -.00000111  00000+0  28173-4 0  9995
2 66920  50.0122  14.5660 0000854  69.1211 290.9753 13.29326624 30932
HULIANWANG DIGUI-111    
1 66921U 25285G   26204.43758741 -.00000117  00000+0  15635-4 0  9992
2 66921  50.0138  15.9015 0000872  68.3732 291.7233 13.29326104 30887
HULIANWANG DIGUI-112    
1 66922U 25285H   26204.50437051 -.00000103  00000+0  45575-4 0  9990
2 66922  50.0101  15.5221 0000920  64.9881 295.1086 13.29326135 30893
HULIANWANG DIGUI-113    
1 66923U 25285J   26204.49613144 -.00000110  00000+0  30200-4 0  9995
2 66923  50.0112  15.4966 0000925  64.1179 295.9788 13.29324516 30896
HULIANWANG DIGUI-114    
1 66953U 25287A   26204.63158066  .00000013  00000+0 -36268-5 0  9996
2 66953  86.4920 270.0524 0002248  94.7943 265.3447 13.24413849 30162
HULIANWANG DIGUI-115    
1 66954U 25287B   26204.62380044  .00000020  00000+0  13061-4 0  9991
2 66954  86.4935 270.0855 0002491  90.8834 269.2586 13.24401346 30168
HULIANWANG DIGUI-116    
1 66955U 25287C   26204.61647883  .00000029  00000+0  34549-4 0  9991
2 66955  86.4876 269.9436 0002318  92.1345 268.0055 13.24413533 30164
HULIANWANG DIGUI-117    
1 66956U 25287D   26204.60895854  .00000039  00000+0  56693-4 0  9999
2 66956  86.4937 270.0799 0000695  85.0898 275.0315 13.24413185 30168
HULIANWANG DIGUI-118    
1 66957U 25287E   26204.60139698  .00000048  00000+0  77869-4 0  9995
2 66957  86.4912 270.0212 0002299  94.1273 266.0124 13.24412614 30166
HULIANWANG DIGUI-119    
1 67059U 25295A   26204.54336737 -.00000088  00000+0  77020-4 0  9998
2 67059  50.0023 255.3909 0001125 222.6171 137.4614 13.29325069 30337
HULIANWANG DIGUI-120    
1 67060U 25295B   26204.60185087 -.00000085  00000+0  83112-4 0  9993
2 67060  50.0030 255.0448 0001185 223.8012 136.2767 13.29324969 30340
HULIANWANG DIGUI-121    
1 67061U 25295C   26204.61018922 -.00000089  00000+0  75496-4 0  9998
2 67061  49.9990 255.0118 0001165 221.3868 138.6916 13.29326296 30344
HULIANWANG DIGUI-122    
1 67062U 25295D   26204.51823943 -.00000086  00000+0  81600-4 0  9996
2 67062  50.0024 255.2606 0001164 221.2064 138.8720 13.29324892 30330
HULIANWANG DIGUI-123    
1 67063U 25295E   26204.58512510 -.00000083  00000+0  88148-4 0  9990
2 67063  50.0024 254.9513 0001084 223.5412 136.5375 13.29324524 30341
