{"fetched_at":"2026-07-24T07:06:33.741Z","source":"https://celestrak.org/NORAD/elements/gp.php?NAME=HULIANWANG&FORMAT=JSON","constellation":"guowang","records":[{"OBJECT_NAME":"HULIANWANG DIGUI-108","OBJECT_ID":"2025-285D","EPOCH":"2026-07-23T11:06:05.867424","CLASSIFICATION_TYPE":"U","MEAN_MOTION":13.29326044,"ECCENTRICITY":0.00009132,"INCLINATION":50.0064,"RA_OF_ASC_NODE":15.8957,"ARG_OF_PERICENTER":67.0991,"MEAN_ANOMALY":292.9977,"EPHEMERIS_TYPE":0,"NORAD_CAT_ID":66918,"ELEMENT_SET_NO":999,"REV_AT_EPOCH":3088,"BSTAR":0.000030733062,"MEAN_MOTION_DOT":-0.0000011,"MEAN_MOTION_DDOT":0},{"OBJECT_NAME":"HULIANWANG DIGUI-109","OBJECT_ID":"2025-285E","EPOCH":"2026-07-23T19:55:16.923936","CLASSIFICATION_TYPE":"U","MEAN_MOTION":13.29316865,"ECCENTRICITY":0.0000869,"INCLINATION":50.0091,"RA_OF_ASC_NODE":14.5502,"ARG_OF_PERICENTER":78.3495,"MEAN_ANOMALY":281.7475,"EPHEMERIS_TYPE":0,"NORAD_CAT_ID":66919,"ELEMENT_SET_NO":999,"REV_AT_EPOCH":3094,"BSTAR":0.000052791,"MEAN_MOTION_DOT":-0.000001,"MEAN_MOTION_DDOT":0},{"OBJECT_NAME":"HULIANWANG DIGUI-110","OBJECT_ID":"2025-285F","EPOCH":"2026-07-23T19:43:23.420640","CLASSIFICATION_TYPE":"U","MEAN_MOTION":13.29326624,"ECCENTRICITY":0.0000854,"INCLINATION":50.0122,"RA_OF_ASC_NODE":14.566,"ARG_OF_PERICENTER":69.1211,"MEAN_ANOMALY":290.9753,"EPHEMERIS_TYPE":0,"NORAD_CAT_ID":66920,"ELEMENT_SET_NO":999,"REV_AT_EPOCH":3093,"BSTAR":0.000028173,"MEAN_MOTION_DOT":-0.00000111,"MEAN_MOTION_DDOT":0},{"OBJECT_NAME":"HULIANWANG DIGUI-111","OBJECT_ID":"2025-285G","EPOCH":"2026-07-23T10:30:07.552224","CLASSIFICATION_TYPE":"U","MEAN_MOTION":13.29326104,"ECCENTRICITY":0.00008721,"INCLINATION":50.0138,"RA_OF_ASC_NODE":15.9015,"ARG_OF_PERICENTER":68.3732,"MEAN_ANOMALY":291.7233,"EPHEMERIS_TYPE":0,"NORAD_CAT_ID":66921,"ELEMENT_SET_NO":999,"REV_AT_EPOCH":3088,"BSTAR":0.000015635263,"MEAN_MOTION_DOT":-0.00000117,"MEAN_MOTION_DDOT":0},{"OBJECT_NAME":"HULIANWANG DIGUI-112","OBJECT_ID":"2025-285H","EPOCH":"2026-07-23T12:06:17.612064","CLASSIFICATION_TYPE":"U","MEAN_MOTION":13.29326135,"ECCENTRICITY":0.00009209,"INCLINATION":50.0101,"RA_OF_ASC_NODE":15.5221,"ARG_OF_PERICENTER":64.9881,"MEAN_ANOMALY":295.1086,"EPHEMERIS_TYPE":0,"NORAD_CAT_ID":66922,"ELEMENT_SET_NO":999,"REV_AT_EPOCH":3089,"BSTAR":0.000045574796,"MEAN_MOTION_DOT":-0.00000103,"MEAN_MOTION_DDOT":0},{"OBJECT_NAME":"HULIANWANG DIGUI-113","OBJECT_ID":"2025-285J","EPOCH":"2026-07-23T11:54:25.756416","CLASSIFICATION_TYPE":"U","MEAN_MOTION":13.29324516,"ECCENTRICITY":0.00009253,"INCLINATION":50.0112,"RA_OF_ASC_NODE":15.4966,"ARG_OF_PERICENTER":64.1179,"MEAN_ANOMALY":295.9788,"EPHEMERIS_TYPE":0,"NORAD_CAT_ID":66923,"ELEMENT_SET_NO":999,"REV_AT_EPOCH":3089,"BSTAR":0.000030200019,"MEAN_MOTION_DOT":-0.0000011,"MEAN_MOTION_DDOT":0},{"OBJECT_NAME":"HULIANWANG DIGUI-114","OBJECT_ID":"2025-287A","EPOCH":"2026-07-23T15:09:28.569024","CLASSIFICATION_TYPE":"U","MEAN_MOTION":13.24413849,"ECCENTRICITY":0.0002248,"INCLINATION":86.492,"RA_OF_ASC_NODE":270.0524,"ARG_OF_PERICENTER":94.7943,"MEAN_ANOMALY":265.3447,"EPHEMERIS_TYPE":0,"NORAD_CAT_ID":66953,"ELEMENT_SET_NO":999,"REV_AT_EPOCH":3016,"BSTAR":-0.0000036268,"MEAN_MOTION_DOT":1.3e-7,"MEAN_MOTION_DDOT":0},{"OBJECT_NAME":"HULIANWANG DIGUI-115","OBJECT_ID":"2025-287B","EPOCH":"2026-07-23T14:58:16.358016","CLASSIFICATION_TYPE":"U","MEAN_MOTION":13.24401346,"ECCENTRICITY":0.0002491,"INCLINATION":86.4935,"RA_OF_ASC_NODE":270.0855,"ARG_OF_PERICENTER":90.8834,"MEAN_ANOMALY":269.2586,"EPHEMERIS_TYPE":0,"NORAD_CAT_ID":66954,"ELEMENT_SET_NO":999,"REV_AT_EPOCH":3016,"BSTAR":0.000013061,"MEAN_MOTION_DOT":2e-7,"MEAN_MOTION_DDOT":0},{"OBJECT_NAME":"HULIANWANG DIGUI-116","OBJECT_ID":"2025-287C","EPOCH":"2026-07-23T14:47:43.770912","CLASSIFICATION_TYPE":"U","MEAN_MOTION":13.24413533,"ECCENTRICITY":0.0002318,"INCLINATION":86.4876,"RA_OF_ASC_NODE":269.9436,"ARG_OF_PERICENTER":92.1345,"MEAN_ANOMALY":268.0055,"EPHEMERIS_TYPE":0,"NORAD_CAT_ID":66955,"ELEMENT_SET_NO":999,"REV_AT_EPOCH":3016,"BSTAR":0.000034549,"MEAN_MOTION_DOT":2.9e-7,"MEAN_MOTION_DDOT":0},{"OBJECT_NAME":"HULIANWANG DIGUI-117","OBJECT_ID":"2025-287D","EPOCH":"2026-07-23T14:36:54.017856","CLASSIFICATION_TYPE":"U","MEAN_MOTION":13.24413185,"ECCENTRICITY":0.0000695,"INCLINATION":86.4937,"RA_OF_ASC_NODE":270.0799,"ARG_OF_PERICENTER":85.0898,"MEAN_ANOMALY":275.0315,"EPHEMERIS_TYPE":0,"NORAD_CAT_ID":66956,"ELEMENT_SET_NO":999,"REV_AT_EPOCH":3016,"BSTAR":0.000056693,"MEAN_MOTION_DOT":3.9e-7,"MEAN_MOTION_DDOT":0},{"OBJECT_NAME":"HULIANWANG DIGUI-118","OBJECT_ID":"2025-287E","EPOCH":"2026-07-23T14:26:00.699072","CLASSIFICATION_TYPE":"U","MEAN_MOTION":13.24412614,"ECCENTRICITY":0.0002299,"INCLINATION":86.4912,"RA_OF_ASC_NODE":270.0212,"ARG_OF_PERICENTER":94.1273,"MEAN_ANOMALY":266.0124,"EPHEMERIS_TYPE":0,"NORAD_CAT_ID":66957,"ELEMENT_SET_NO":999,"REV_AT_EPOCH":3016,"BSTAR":0.000077869,"MEAN_MOTION_DOT":4.8e-7,"MEAN_MOTION_DDOT":0},{"OBJECT_NAME":"HULIANWANG DIGUI-119","OBJECT_ID":"2025-295A","EPOCH":"2026-07-23T13:02:26.940768","CLASSIFICATION_TYPE":"U","MEAN_MOTION":13.29325069,"ECCENTRICITY":0.0001125,"INCLINATION":50.0023,"RA_OF_ASC_NODE":255.3909,"ARG_OF_PERICENTER":222.6171,"MEAN_ANOMALY":137.4614,"EPHEMERIS_TYPE":0,"NORAD_CAT_ID":67059,"ELEMENT_SET_NO":999,"REV_AT_EPOCH":3033,"BSTAR":0.00007702,"MEAN_MOTION_DOT":-8.8e-7,"MEAN_MOTION_DDOT":0},{"OBJECT_NAME":"HULIANWANG DIGUI-120","OBJECT_ID":"2025-295B","EPOCH":"2026-07-23T14:26:39.915168","CLASSIFICATION_TYPE":"U","MEAN_MOTION":13.29324969,"ECCENTRICITY":0.0001185,"INCLINATION":50.003,"RA_OF_ASC_NODE":255.0448,"ARG_OF_PERICENTER":223.8012,"MEAN_ANOMALY":136.2767,"EPHEMERIS_TYPE":0,"NORAD_CAT_ID":67060,"ELEMENT_SET_NO":999,"REV_AT_EPOCH":3034,"BSTAR":0.000083112,"MEAN_MOTION_DOT":-8.5e-7,"MEAN_MOTION_DDOT":0},{"OBJECT_NAME":"HULIANWANG DIGUI-121","OBJECT_ID":"2025-295C","EPOCH":"2026-07-23T14:38:40.348608","CLASSIFICATION_TYPE":"U","MEAN_MOTION":13.29326296,"ECCENTRICITY":0.0001165,"INCLINATION":49.999,"RA_OF_ASC_NODE":255.0118,"ARG_OF_PERICENTER":221.3868,"MEAN_ANOMALY":138.6916,"EPHEMERIS_TYPE":0,"NORAD_CAT_ID":67061,"ELEMENT_SET_NO":999,"REV_AT_EPOCH":3034,"BSTAR":0.000075496,"MEAN_MOTION_DOT":-8.9e-7,"MEAN_MOTION_DDOT":0},{"OBJECT_NAME":"HULIANWANG DIGUI-122","OBJECT_ID":"2025-295D","EPOCH":"2026-07-23T12:26:15.886752","CLASSIFICATION_TYPE":"U","MEAN_MOTION":13.29324892,"ECCENTRICITY":0.0001164,"INCLINATION":50.0024,"RA_OF_ASC_NODE":255.2606,"ARG_OF_PERICENTER":221.2064,"MEAN_ANOMALY":138.872,"EPHEMERIS_TYPE":0,"NORAD_CAT_ID":67062,"ELEMENT_SET_NO":999,"REV_AT_EPOCH":3033,"BSTAR":0.0000816,"MEAN_MOTION_DOT":-8.6e-7,"MEAN_MOTION_DDOT":0},{"OBJECT_NAME":"HULIANWANG DIGUI-123","OBJECT_ID":"2025-295E","EPOCH":"2026-07-23T14:02:34.808640","CLASSIFICATION_TYPE":"U","MEAN_MOTION":13.29324524,"ECCENTRICITY":0.0001084,"INCLINATION":50.0024,"RA_OF_ASC_NODE":254.9513,"ARG_OF_PERICENTER":223.5412,"MEAN_ANOMALY":136.5375,"EPHEMERIS_TYPE":0,"NORAD_CAT_ID":67063,"ELEMENT_SET_NO":999,"REV_AT_EPOCH":3034,"BSTAR":0.000088148,"MEAN_MOTION_DOT":-8.3e-7,"MEAN_MOTION_DDOT":0}]}
